[{"OBJECT_NAME":"STARLINK-1366","OBJECT_ID":"2020-025AQ","EPOCH":"2026-03-09T04:55:39.369792","MEAN_MOTION":15.75756697,"ECCENTRICITY":0.00085074,"INCLINATION":53.044,"RA_OF_ASC_NODE":40.9129,"ARG_OF_PERICENTER":56.1589,"MEAN_ANOMALY":304.0238,"EPHEMERIS_TYPE":0,"CLASSIFICATION_TYPE":"U","NORAD_CAT_ID":45569,"ELEMENT_SET_NO":999,"REV_AT_EPOCH":32596,"BSTAR":0.00070244107,"MEAN_MOTION_DOT":0.00111184,"MEAN_MOTION_DDOT":0},{"OBJECT_NAME":"STARLINK-11691 [DTC]","OBJECT_ID":"2025-119D","EPOCH":"2026-03-09T10:00:31.030848","MEAN_MOTION":15.71175477,"ECCENTRICITY":0.00028417,"INCLINATION":42.9997,"RA_OF_ASC_NODE":210.5971,"ARG_OF_PERICENTER":265.8335,"MEAN_ANOMALY":94.2208,"EPHEMERIS_TYPE":0,"CLASSIFICATION_TYPE":"U","NORAD_CAT_ID":64236,"ELEMENT_SET_NO":999,"REV_AT_EPOCH":4520,"BSTAR":0.0028225205,"MEAN_MOTION_DOT":0.00384356,"MEAN_MOTION_DDOT":0}]
