STARLINK-1366           
1 45569U 20025AQ  26068.20531678  .00111184  00000+0  70244-3 0  9997
2 45569  53.0440  40.9129 0008507  56.1589 304.0238 15.75756697325969
STARLINK-11691 [DTC]    
1 64236U 25119D   26068.41702582  .00384356  00000+0  28225-2 0  9999
2 64236  42.9997 210.5971 0002841 265.8335  94.2208 15.71175477 45206
